start=new Date('2023-04-21T00:00:00.000Z').valueOf();
sats=[{"EPOCH":"2023-04-20T16:48:45.074880","APOAPSIS":"548.140","COUNTRY_CODE":"US","RCS_SIZE":"LARGE","SITE":"AFETR","OBJECT_NAME":"STARLINK-2449","TLE_LINE1":"1 48112U 21027W   23110.70052170  .00025338  00000-0  17150-2 0  9994","MEAN_MOTION_DDOT":"0.0000000000000","OBJECT_TYPE":"PAYLOAD","OBJECT_ID":"2021-027W","MEAN_MOTION":"15.06374613","GP_ID":"230460637","FILE":"3891109","TIME_SYSTEM":"UTC","RA_OF_ASC_NODE":"228.3187","ARG_OF_PERICENTER":"86.6530","REV_AT_EPOCH":"11348","NORAD_CAT_ID":"48112","CLASSIFICATION_TYPE":"U","INCLINATION":"53.0537","ELEMENT_SET_NO":"999","MEAN_ANOMALY":"273.4599","DECAY_DATE":null,"MEAN_MOTION_DOT":"0.00025338","BSTAR":"0.00171500000000","MEAN_ELEMENT_THEORY":"SGP4","EPHEMERIS_TYPE":"0","LAUNCH_DATE":"2021-04-07","CENTER_NAME":"EARTH","PERIOD":"95.594","SEMIMAJOR_AXIS":"6925.426","TLE_LINE2":"2 48112  53.0537 228.3187 0001226  86.6530 273.4599 15.06374613113483","PERIAPSIS":"546.442","REF_FRAME":"TEME","ECCENTRICITY":"0.00012260"},{"OBJECT_NAME":"STARLINK-2450","SITE":"AFETR","RCS_SIZE":"LARGE","COUNTRY_CODE":"US","EPOCH":"2023-04-20T15:16:29.148672","APOAPSIS":"548.067","REV_AT_EPOCH":"11353","ARG_OF_PERICENTER":"95.6470","RA_OF_ASC_NODE":"223.4422","TIME_SYSTEM":"UTC","FILE":"3891109","GP_ID":"230460888","MEAN_MOTION":"15.06412885","OBJECT_TYPE":"PAYLOAD","OBJECT_ID":"2021-027X","MEAN_MOTION_DDOT":"0.0000000000000","TLE_LINE1":"1 48113U 21027X   23110.63644848  .00031623  00000-0  21316-2 0  9999","EPHEMERIS_TYPE":"0","BSTAR":"0.00213160000000","MEAN_ELEMENT_THEORY":"SGP4","MEAN_MOTION_DOT":"0.00031623","DECAY_DATE":null,"MEAN_ANOMALY":"264.4666","ELEMENT_SET_NO":"999","INCLINATION":"53.0533","CLASSIFICATION_TYPE":"U","NORAD_CAT_ID":"48113","ECCENTRICITY":"0.00012900","PERIAPSIS":"546.281","REF_FRAME":"TEME","TLE_LINE2":"2 48113  53.0533 223.4422 0001290  95.6470 264.4666 15.06412885113537","SEMIMAJOR_AXIS":"6925.309","PERIOD":"95.591","CENTER_NAME":"EARTH","LAUNCH_DATE":"2021-04-07"},{"PERIOD":"95.593","SEMIMAJOR_AXIS":"6925.372","CENTER_NAME":"EARTH","LAUNCH_DATE":"2021-04-07","ECCENTRICITY":"0.00013140","TLE_LINE2":"2 48114  53.0547 218.3269 0001314 104.3633 255.7502 15.06392239113623","REF_FRAME":"TEME","PERIAPSIS":"546.327","MEAN_ANOMALY":"255.7502","INCLINATION":"53.0547","ELEMENT_SET_NO":"999","CLASSIFICATION_TYPE":"U","NORAD_CAT_ID":"48114","EPHEMERIS_TYPE":"0","MEAN_ELEMENT_THEORY":"SGP4","BSTAR":"0.00219170000000","DECAY_DATE":null,"MEAN_MOTION_DOT":"0.00032508","GP_ID":"230459636","FILE":"3891109","OBJECT_ID":"2021-027Y","OBJECT_TYPE":"PAYLOAD","MEAN_MOTION":"15.06392239","TLE_LINE1":"1 48114U 21027Y   23110.66363646  .00032508  00000-0  21917-2 0  9997","MEAN_MOTION_DDOT":"0.0000000000000","REV_AT_EPOCH":"11362","RA_OF_ASC_NODE":"218.3269","ARG_OF_PERICENTER":"104.3633","TIME_SYSTEM":"UTC","COUNTRY_CODE":"US","APOAPSIS":"548.147","EPOCH":"2023-04-20T15:55:38.190144","OBJECT_NAME":"STARLINK-2451","SITE":"AFETR","RCS_SIZE":"LARGE"},{"REV_AT_EPOCH":"11370","RA_OF_ASC_NODE":"212.8962","ARG_OF_PERICENTER":"101.3520","TIME_SYSTEM":"UTC","GP_ID":"230459886","FILE":"3891109","OBJECT_ID":"2021-027Z","OBJECT_TYPE":"PAYLOAD","MEAN_MOTION":"15.06413797","TLE_LINE1":"1 48115U 21027Z   23110.75805619  .00023430  00000-0  15860-2 0  9993","MEAN_MOTION_DDOT":"0.0000000000000","OBJECT_NAME":"STARLINK-2452","SITE":"AFETR","RCS_SIZE":"LARGE","COUNTRY_CODE":"US","APOAPSIS":"548.091","EPOCH":"2023-04-20T18:11:36.054816","ECCENTRICITY":"0.00013280","TLE_LINE2":"2 48115  53.0544 212.8962 0001328 101.3520 258.7618 15.06413797113700","PERIAPSIS":"546.252","REF_FRAME":"TEME","PERIOD":"95.591","SEMIMAJOR_AXIS":"6925.306","CENTER_NAME":"EARTH","LAUNCH_DATE":"2021-04-07","EPHEMERIS_TYPE":"0","MEAN_ELEMENT_THEORY":"SGP4","BSTAR":"0.00158600000000","DECAY_DATE":null,"MEAN_MOTION_DOT":"0.00023430","MEAN_ANOMALY":"258.7618","INCLINATION":"53.0544","ELEMENT_SET_NO":"999","CLASSIFICATION_TYPE":"U","NORAD_CAT_ID":"48115"},{"REV_AT_EPOCH":"11355","ARG_OF_PERICENTER":"91.8657","RA_OF_ASC_NODE":"223.1675","TIME_SYSTEM":"UTC","FILE":"3891109","GP_ID":"230460138","MEAN_MOTION":"15.06365103","OBJECT_TYPE":"PAYLOAD","OBJECT_ID":"2021-027AA","MEAN_MOTION_DDOT":"0.0000000000000","TLE_LINE1":"1 48116U 21027AA  23110.69913000  .00033061  00000-0  22301-2 0  9990","OBJECT_NAME":"STARLINK-2454","SITE":"AFETR","RCS_SIZE":"LARGE","COUNTRY_CODE":"US","EPOCH":"2023-04-20T16:46:44.832000","APOAPSIS":"548.289","ECCENTRICITY":"0.00013990","PERIAPSIS":"546.352","REF_FRAME":"TEME","TLE_LINE2":"2 48116  53.0534 223.1675 0001399  91.8657 268.2492 15.06365103113554","SEMIMAJOR_AXIS":"6925.456","PERIOD":"95.594","CENTER_NAME":"EARTH","LAUNCH_DATE":"2021-04-07","EPHEMERIS_TYPE":"0","MEAN_ELEMENT_THEORY":"SGP4","BSTAR":"0.00223010000000","MEAN_MOTION_DOT":"0.00033061","DECAY_DATE":null,"MEAN_ANOMALY":"268.2492","ELEMENT_SET_NO":"999","INCLINATION":"53.0534","CLASSIFICATION_TYPE":"U","NORAD_CAT_ID":"48116"},{"REV_AT_EPOCH":"11383","ARG_OF_PERICENTER":"91.0760","RA_OF_ASC_NODE":"203.2822","TIME_SYSTEM":"UTC","FILE":"3891109","GP_ID":"230460389","MEAN_MOTION":"15.06409800","OBJECT_TYPE":"PAYLOAD","OBJECT_ID":"2021-027AB","MEAN_MOTION_DDOT":"0.0000000000000","TLE_LINE1":"1 48117U 21027AB  23110.67049857  .00003392  00000-0  24644-3 0  9996","OBJECT_NAME":"STARLINK-2455","SITE":"AFETR","RCS_SIZE":"LARGE","COUNTRY_CODE":"US","APOAPSIS":"548.084","EPOCH":"2023-04-20T16:05:31.076448","ECCENTRICITY":"0.00013000","PERIAPSIS":"546.283","REF_FRAME":"TEME","TLE_LINE2":"2 48117  53.0533 203.2822 0001300  91.0760 269.0378 15.06409800113832","SEMIMAJOR_AXIS":"6925.319","PERIOD":"95.592","CENTER_NAME":"EARTH","LAUNCH_DATE":"2021-04-07","EPHEMERIS_TYPE":"0","BSTAR":"0.00024644000000","MEAN_ELEMENT_THEORY":"SGP4","MEAN_MOTION_DOT":"0.00003392","DECAY_DATE":null,"MEAN_ANOMALY":"269.0378","ELEMENT_SET_NO":"999","INCLINATION":"53.0533","CLASSIFICATION_TYPE":"U","NORAD_CAT_ID":"48117"},{"REF_FRAME":"TEME","PERIAPSIS":"546.390","TLE_LINE2":"2 48118  53.0534 202.9357 0001307 108.1428 251.9704 15.06373234113442","ECCENTRICITY":"0.00013070","LAUNCH_DATE":"2021-04-07","CENTER_NAME":"EARTH","SEMIMAJOR_AXIS":"6925.431","PERIOD":"95.594","MEAN_MOTION_DOT":"0.00023221","DECAY_DATE":null,"MEAN_ELEMENT_THEORY":"SGP4","BSTAR":"0.00157380000000","EPHEMERIS_TYPE":"0","NORAD_CAT_ID":"48118","CLASSIFICATION_TYPE":"U","ELEMENT_SET_NO":"999","INCLINATION":"53.0534","MEAN_ANOMALY":"251.9704","TIME_SYSTEM":"UTC","ARG_OF_PERICENTER":"108.1428","RA_OF_ASC_NODE":"202.9357","REV_AT_EPOCH":"11344","MEAN_MOTION_DDOT":"0.0000000000000","TLE_LINE1":"1 48118U 21027AC  23110.74888367  .00023221  00000-0  15738-2 0  9998","MEAN_MOTION":"15.06373234","OBJECT_ID":"2021-027AC","OBJECT_TYPE":"PAYLOAD","FILE":"3890913","GP_ID":"230434474","RCS_SIZE":"LARGE","SITE":"AFETR","OBJECT_NAME":"STARLINK-2458","APOAPSIS":"548.201","EPOCH":"2023-04-20T17:58:23.549088","COUNTRY_CODE":"US"},{"EPOCH":"2023-04-20T17:51:43.413408","APOAPSIS":"548.146","COUNTRY_CODE":"US","RCS_SIZE":"LARGE","SITE":"AFETR","OBJECT_NAME":"STARLINK-2459","MEAN_MOTION_DDOT":"0.0000000000000","TLE_LINE1":"1 48119U 21027AD  23110.74425247  .00031885  00000-0  21516-2 0  9999","MEAN_MOTION":"15.06368598","OBJECT_ID":"2021-027AD","OBJECT_TYPE":"PAYLOAD","FILE":"3891109","GP_ID":"230459387","TIME_SYSTEM":"UTC","ARG_OF_PERICENTER":"82.8314","RA_OF_ASC_NODE":"202.9502","REV_AT_EPOCH":"11383","NORAD_CAT_ID":"48119","CLASSIFICATION_TYPE":"U","ELEMENT_SET_NO":"999","INCLINATION":"53.0533","MEAN_ANOMALY":"277.2813","MEAN_MOTION_DOT":"0.00031885","DECAY_DATE":null,"BSTAR":"0.00215160000000","MEAN_ELEMENT_THEORY":"SGP4","EPHEMERIS_TYPE":"0","LAUNCH_DATE":"2021-04-07","CENTER_NAME":"EARTH","SEMIMAJOR_AXIS":"6925.445","PERIOD":"95.594","PERIAPSIS":"546.473","REF_FRAME":"TEME","TLE_LINE2":"2 48119  53.0533 202.9502 0001208  82.8314 277.2813 15.06368598113838","ECCENTRICITY":"0.00012080"},{"COUNTRY_CODE":"US","APOAPSIS":"548.103","EPOCH":"2023-04-20T19:36:34.289856","OBJECT_NAME":"STARLINK-2460","SITE":"AFETR","RCS_SIZE":"LARGE","GP_ID":"230460638","FILE":"3891109","OBJECT_TYPE":"PAYLOAD","OBJECT_ID":"2021-027AE","MEAN_MOTION":"15.06376118","TLE_LINE1":"1 48120U 21027AE  23110.81706354  .00032698  00000-0  22053-2 0  9990","MEAN_MOTION_DDOT":"0.0000000000000","REV_AT_EPOCH":"11358","RA_OF_ASC_NODE":"222.6312","ARG_OF_PERICENTER":"81.4777","TIME_SYSTEM":"UTC","MEAN_ANOMALY":"278.6346","INCLINATION":"53.0533","ELEMENT_SET_NO":"999","CLASSIFICATION_TYPE":"U","NORAD_CAT_ID":"48120","EPHEMERIS_TYPE":"0","BSTAR":"0.00220530000000","MEAN_ELEMENT_THEORY":"SGP4","DECAY_DATE":null,"MEAN_MOTION_DOT":"0.00032698","PERIOD":"95.594","SEMIMAJOR_AXIS":"6925.422","CENTER_NAME":"EARTH","LAUNCH_DATE":"2021-04-07","ECCENTRICITY":"0.00011790","TLE_LINE2":"2 48120  53.0533 222.6312 0001179  81.4777 278.6346 15.06376118113588","PERIAPSIS":"546.470","REF_FRAME":"TEME"},{"PERIAPSIS":"546.430","REF_FRAME":"TEME","TLE_LINE2":"2 48121  53.0537 213.6543 0001286  83.9863 276.1273 15.06365043113678","ECCENTRICITY":"0.00012860","LAUNCH_DATE":"2021-04-07","CENTER_NAME":"EARTH","SEMIMAJOR_AXIS":"6925.456","PERIOD":"95.594","MEAN_MOTION_DOT":"0.00031738","DECAY_DATE":null,"BSTAR":"0.00214200000000","MEAN_ELEMENT_THEORY":"SGP4","EPHEMERIS_TYPE":"0","NORAD_CAT_ID":"48121","CLASSIFICATION_TYPE":"U","ELEMENT_SET_NO":"999","INCLINATION":"53.0537","MEAN_ANOMALY":"276.1273","TIME_SYSTEM":"UTC","ARG_OF_PERICENTER":"83.9863","RA_OF_ASC_NODE":"213.6543","REV_AT_EPOCH":"11367","MEAN_MOTION_DDOT":"0.0000000000000","TLE_LINE1":"1 48121U 21027AF  23110.58946677  .00031738  00000-0  21420-2 0  9990","MEAN_MOTION":"15.06365043","OBJECT_TYPE":"PAYLOAD","OBJECT_ID":"2021-027AF","FILE":"3891109","GP_ID":"230460889","RCS_SIZE":"LARGE","SITE":"AFETR","OBJECT_NAME":"STARLINK-2462","EPOCH":"2023-04-20T14:08:49.928928","APOAPSIS":"548.211","COUNTRY_CODE":"US"}];
